SHIYAN-1 (SY-1)         
1 28220U 04012A   26068.73650539  .00016393  00000+0  54854-3 0  9991
2 28220  97.8764 140.5238 0005873  23.6952 336.4557 15.31043463195862
STARLINK-34410          
1 64440U 25130C   26068.34360570  .00018573  00000+0  63757-3 0  9993
2 64440  53.1586  89.8949 0001266  84.1429 275.9716 15.30203151 40651
